[{"OBJECT_NAME":"OBJECT B","OBJECT_ID":"2024-166B","EPOCH":"2026-03-08T16:09:42.851232","MEAN_MOTION":15.75502359,"ECCENTRICITY":0.0002182,"INCLINATION":96.6921,"RA_OF_ASC_NODE":322.5475,"ARG_OF_PERICENTER":351.2198,"MEAN_ANOMALY":8.9031,"EPHEMERIS_TYPE":0,"CLASSIFICATION_TYPE":"U","NORAD_CAT_ID":61180,"ELEMENT_SET_NO":999,"REV_AT_EPOCH":8491,"BSTAR":0.00025198,"MEAN_MOTION_DOT":0.00038147,"MEAN_MOTION_DDOT":0},{"OBJECT_NAME":"STARLINK-36419","OBJECT_ID":"2026-016Z","EPOCH":"2026-03-09T17:43:12.841248","MEAN_MOTION":15.75090504,"ECCENTRICITY":0.00015019,"INCLINATION":97.283,"RA_OF_ASC_NODE":129.2687,"ARG_OF_PERICENTER":86.9662,"MEAN_ANOMALY":273.1775,"EPHEMERIS_TYPE":0,"CLASSIFICATION_TYPE":"U","NORAD_CAT_ID":67584,"ELEMENT_SET_NO":999,"REV_AT_EPOCH":681,"BSTAR":0.00092013411,"MEAN_MOTION_DOT":0.00138768,"MEAN_MOTION_DDOT":0}]
